{
  "type": "FeatureCollection",
  "features": [
    {
      "type": "Feature",
      "properties": {
        "norad_id": 66898,
        "name": "STARLINK-36065",
        "group": "last-30-days",
        "lat": 43.920574593883,
        "lon": 155.16440443522967,
        "alt_km": 350.7912646486311,
        "timestamp": "2025-12-23T05:02:10.751231+00:00",
        "meta_object_name": "STARLINK-36065",
        "meta_object_id": "2025-283W",
        "meta_epoch": "2025-12-22T22:00:03.000096",
        "meta_mean_motion": 15.71776459,
        "meta_eccentricity": 0.00012414,
        "meta_inclination": 53.159,
        "meta_ra_of_asc_node": 22.8351,
        "meta_arg_of_pericenter": 97.7684,
        "meta_mean_anomaly": 163.0321,
        "meta_ephemeris_type": 0,
        "meta_classification_type": "U",
        "meta_norad_cat_id": 66898,
        "meta_element_set_no": 999,
        "meta_rev_at_epoch": 406,
        "meta_bstar": -0.016391558,
        "meta_mean_motion_dot": -0.01883394,
        "meta_mean_motion_ddot": 0,
        "tle_line1": "1 66898U 25283W   25356.91670139 -.01883394  00000+0 -16392-1 0  9993",
        "tle_line2": "2 66898  53.1590  22.8351 0001241  97.7684 163.0321 15.71776459  4060"
      },
      "geometry": {
        "type": "Point",
        "coordinates": [
          155.16440443522967,
          43.920574593883
        ]
      }
    },
    {
      "type": "Feature",
      "properties": {
        "norad_id": 66899,
        "name": "STARLINK-36064",
        "group": "last-30-days",
        "lat": 42.83308344613974,
        "lon": 157.3475864762635,
        "alt_km": 351.0243473582368,
        "timestamp": "2025-12-23T05:02:10.751240+00:00",
        "meta_object_name": "STARLINK-36064",
        "meta_object_id": "2025-283X",
        "meta_epoch": "2025-12-22T22:00:03.000096",
        "meta_mean_motion": 15.71745372,
        "meta_eccentricity": 0.00012066,
        "meta_inclination": 53.1588,
        "meta_ra_of_asc_node": 22.8308,
        "meta_arg_of_pericenter": 97.3667,
        "meta_mean_anomaly": 165.3788,
        "meta_ephemeris_type": 0,
        "meta_classification_type": "U",
        "meta_norad_cat_id": 66899,
        "meta_element_set_no": 999,
        "meta_rev_at_epoch": 400,
        "meta_bstar": -0.016137749,
        "meta_mean_motion_dot": -0.01855931,
        "meta_mean_motion_ddot": 0,
        "tle_line1": "1 66899U 25283X   25356.91670139 -.01855931  00000+0 -16138-1 0  9998",
        "tle_line2": "2 66899  53.1588  22.8308 0001206  97.3667 165.3788 15.71745372  4004"
      },
      "geometry": {
        "type": "Point",
        "coordinates": [
          157.3475864762635,
          42.83308344613974
        ]
      }
    },
    {
      "type": "Feature",
      "properties": {
        "norad_id": 66900,
        "name": "STARLINK-36074",
        "group": "last-30-days",
        "lat": 41.71352040550926,
        "lon": 159.4395268753232,
        "alt_km": 351.3504584006623,
        "timestamp": "2025-12-23T05:02:10.751250+00:00",
        "meta_object_name": "STARLINK-36074",
        "meta_object_id": "2025-283Y",
        "meta_epoch": "2025-12-22T22:00:03.000096",
        "meta_mean_motion": 15.71777226,
        "meta_eccentricity": 8.912e-05,
        "meta_inclination": 53.1585,
        "meta_ra_of_asc_node": 22.8272,
        "meta_arg_of_pericenter": 74.6003,
        "meta_mean_anomaly": 190.0325,
        "meta_ephemeris_type": 0,
        "meta_classification_type": "U",
        "meta_norad_cat_id": 66900,
        "meta_element_set_no": 999,
        "meta_rev_at_epoch": 406,
        "meta_bstar": -0.016391596,
        "meta_mean_motion_dot": -0.01883161,
        "meta_mean_motion_ddot": 0,
        "tle_line1": "1 66900U 25283Y   25356.91670139 -.01883161  00000+0 -16392-1 0  9999",
        "tle_line2": "2 66900  53.1585  22.8272 0000891  74.6003 190.0325 15.71777226  4066"
      },
      "geometry": {
        "type": "Point",
        "coordinates": [
          159.4395268753232,
          41.71352040550926
        ]
      }
    },
    {
      "type": "Feature",
      "properties": {
        "norad_id": 66901,
        "name": "STARLINK-36043",
        "group": "last-30-days",
        "lat": 40.55156070235962,
        "lon": 161.46753177804035,
        "alt_km": 351.45251658025336,
        "timestamp": "2025-12-23T05:02:10.751260+00:00",
        "meta_object_name": "STARLINK-36043",
        "meta_object_id": "2025-283Z",
        "meta_epoch": "2025-12-22T22:00:03.000096",
        "meta_mean_motion": 15.71770021,
        "meta_eccentricity": 0.00010875,
        "meta_inclination": 53.1585,
        "meta_ra_of_asc_node": 22.8224,
        "meta_arg_of_pericenter": 97.5878,
        "meta_mean_anomaly": 168.9682,
        "meta_ephemeris_type": 0,
        "meta_classification_type": "U",
        "meta_norad_cat_id": 66901,
        "meta_element_set_no": 999,
        "meta_rev_at_epoch": 406,
        "meta_bstar": -0.016321184,
        "meta_mean_motion_dot": -0.01875818,
        "meta_mean_motion_ddot": 0,
        "tle_line1": "1 66901U 25283Z   25356.91670139 -.01875818  00000+0 -16321-1 0  9992",
        "tle_line2": "2 66901  53.1585  22.8224 0001087  97.5878 168.9682 15.71770021  4062"
      },
      "geometry": {
        "type": "Point",
        "coordinates": [
          161.46753177804035,
          40.55156070235962
        ]
      }
    },
    {
      "type": "Feature",
      "properties": {
        "norad_id": 66902,
        "name": "STARLINK-35983",
        "group": "last-30-days",
        "lat": 39.35690008767278,
        "lon": 163.42380264223897,
        "alt_km": 351.58919720724225,
        "timestamp": "2025-12-23T05:02:10.751270+00:00",
        "meta_object_name": "STARLINK-35983",
        "meta_object_id": "2025-283AA",
        "meta_epoch": "2025-12-22T22:00:03.000096",
        "meta_mean_motion": 15.71774377,
        "meta_eccentricity": 0.00012218,
        "meta_inclination": 53.1587,
        "meta_ra_of_asc_node": 22.8186,
        "meta_arg_of_pericenter": 93.8561,
        "meta_mean_anomaly": 174.6115,
        "meta_ephemeris_type": 0,
        "meta_classification_type": "U",
        "meta_norad_cat_id": 66902,
        "meta_element_set_no": 999,
        "meta_rev_at_epoch": 406,
        "meta_bstar": -0.016348158,
        "meta_mean_motion_dot": -0.01878917,
        "meta_mean_motion_ddot": 0,
        "tle_line1": "1 66902U 25283AA  25356.91670139 -.01878917  00000+0 -16348-1 0  9995",
        "tle_line2": "2 66902  53.1587  22.8186 0001221  93.8561 174.6115 15.71774377  4063"
      },
      "geometry": {
        "type": "Point",
        "coordinates": [
          163.42380264223897,
          39.35690008767278
        ]
      }
    },
    {
      "type": "Feature",
      "properties": {
        "norad_id": 66903,
        "name": "STARLINK-36077",
        "group": "last-30-days",
        "lat": 38.13021431972547,
        "lon": 165.31348229096227,
        "alt_km": 351.93537622234544,
        "timestamp": "2025-12-23T05:02:10.751282+00:00",
        "meta_object_name": "STARLINK-36077",
        "meta_object_id": "2025-283AB",
        "meta_epoch": "2025-12-22T22:00:03.000096",
        "meta_mean_motion": 15.71771924,
        "meta_eccentricity": 0.00010507,
        "meta_inclination": 53.1587,
        "meta_ra_of_asc_node": 22.8149,
        "meta_arg_of_pericenter": 89.2702,
        "meta_mean_anomaly": 181.1163,
        "meta_ephemeris_type": 0,
        "meta_classification_type": "U",
        "meta_norad_cat_id": 66903,
        "meta_element_set_no": 999,
        "meta_rev_at_epoch": 406,
        "meta_bstar": -0.016329063,
        "meta_mean_motion_dot": -0.01876704,
        "meta_mean_motion_ddot": 0,
        "tle_line1": "1 66903U 25283AB  25356.91670139 -.01876704  00000+0 -16329-1 0  9997",
        "tle_line2": "2 66903  53.1587  22.8149 0001050  89.2702 181.1163 15.71771924  4060"
      },
      "geometry": {
        "type": "Point",
        "coordinates": [
          165.31348229096227,
          38.13021431972547
        ]
      }
    },
    {
      "type": "Feature",
      "properties": {
        "norad_id": 66904,
        "name": "STARLINK-36059",
        "group": "last-30-days",
        "lat": 36.87487079503559,
        "lon": 167.13836267058628,
        "alt_km": 352.15716294776485,
        "timestamp": "2025-12-23T05:02:10.751294+00:00",
        "meta_object_name": "STARLINK-36059",
        "meta_object_id": "2025-283AC",
        "meta_epoch": "2025-12-22T22:00:03.000096",
        "meta_mean_motion": 15.7177383,
        "meta_eccentricity": 8.892e-05,
        "meta_inclination": 53.1588,
        "meta_ra_of_asc_node": 22.8106,
        "meta_arg_of_pericenter": 76.8873,
        "meta_mean_anomaly": 195.4163,
        "meta_ephemeris_type": 0,
        "meta_classification_type": "U",
        "meta_norad_cat_id": 66904,
        "meta_element_set_no": 999,
        "meta_rev_at_epoch": 406,
        "meta_bstar": -0.016364534,
        "meta_mean_motion_dot": -0.01880232,
        "meta_mean_motion_ddot": 0,
        "tle_line1": "1 66904U 25283AC  25356.91670139 -.01880232  00000+0 -16365-1 0  9999",
        "tle_line2": "2 66904  53.1588  22.8106 0000889  76.8873 195.4163 15.71773830  4061"
      },
      "geometry": {
        "type": "Point",
        "coordinates": [
          167.13836267058628,
          36.87487079503559
        ]
      }
    }
  ]
}